[{"OBJECT_NAME":"LYNK TOWER 6","OBJECT_ID":"2024-043AB","EPOCH":"2026-03-09T21:28:38.303328","MEAN_MOTION":15.29548678,"ECCENTRICITY":0.00097492,"INCLINATION":97.5426,"RA_OF_ASC_NODE":204.1954,"ARG_OF_PERICENTER":232.0253,"MEAN_ANOMALY":128.0107,"EPHEMERIS_TYPE":0,"CLASSIFICATION_TYPE":"U","NORAD_CAT_ID":59123,"ELEMENT_SET_NO":999,"REV_AT_EPOCH":11184,"BSTAR":0.00040142146,"MEAN_MOTION_DOT":0.0001144,"MEAN_MOTION_DDOT":0},{"OBJECT_NAME":"STARLINK-35760","OBJECT_ID":"2025-247K","EPOCH":"2026-03-09T21:40:52.035456","MEAN_MOTION":15.30199957,"ECCENTRICITY":0.00015725,"INCLINATION":53.1588,"RA_OF_ASC_NODE":190.6444,"ARG_OF_PERICENTER":59.2323,"MEAN_ANOMALY":300.8832,"EPHEMERIS_TYPE":0,"CLASSIFICATION_TYPE":"U","NORAD_CAT_ID":66274,"ELEMENT_SET_NO":999,"REV_AT_EPOCH":2106,"BSTAR":0.00094874952,"MEAN_MOTION_DOT":0.00027845,"MEAN_MOTION_DDOT":0}]
