LYNK TOWER 6            
1 59123U 24043AB  26068.89488777  .00011440  00000+0  40142-3 0  9996
2 59123  97.5426 204.1954 0009749 232.0253 128.0107 15.29548678111845
STARLINK-35760          
1 66274U 25247K   26068.90338003  .00027845  00000+0  94875-3 0  9994
2 66274  53.1588 190.6444 0001572  59.2323 300.8832 15.30199957 21066
